{"type": "FeatureCollection", "features": [ {"type": "Feature", "properties": {"norad_id": 43566, "name": "GSAT0219 (GALILEO 23)", "group": "gnss", "lat": 41.667129795966744, "lon": 131.98699785152795, "alt_km": 23232.828829806036, "timestamp": "2025-12-07T07:31:36.542428+00:00", "meta": {"OBJECT_NAME": "GSAT0219 (GALILEO 23)", "OBJECT_ID": "2018-060C", "EPOCH": "2025-12-05T22:22:25.031424", "MEAN_MOTION": 1.70475627, "ECCENTRICITY": 0.00057672, "INCLINATION": 57.232, "RA_OF_ASC_NODE": 347.0061, "ARG_OF_PERICENTER": 285.4394, "MEAN_ANOMALY": 74.5216, "EPHEMERIS_TYPE": 0, "CLASSIFICATION_TYPE": "U", "NORAD_CAT_ID": 43566, "ELEMENT_SET_NO": 999, "REV_AT_EPOCH": 4589, "BSTAR": 0, "MEAN_MOTION_DOT": -7.8e-07, "MEAN_MOTION_DDOT": 0}, "tle": {"line1": "1 43566U 18060C   25339.93223416 -.00000078  00000+0  00000+0 0  9995", "line2": "2 43566  57.2320 347.0061 0005767 285.4394  74.5216  1.70475627 45896"}}, "geometry": {"type": "Point", "coordinates": [131.98699785152795, 41.667129795966744]}}, {"type": "Feature", "properties": {"norad_id": 43567, "name": "GSAT0220 (GALILEO 24)", "group": "gnss", "lat": -6.552084603935187, "lon": -17.274845030159835, "alt_km": 23217.07172490973, "timestamp": "2025-12-07T07:31:36.542461+00:00", "meta": {"OBJECT_NAME": "GSAT0220 (GALILEO 24)", "OBJECT_ID": "2018-060D", "EPOCH": "2025-12-04T23:31:11.369280", "MEAN_MOTION": 1.70475333, "ECCENTRICITY": 0.00061638, "INCLINATION": 57.2318, "RA_OF_ASC_NODE": 347.0321, "ARG_OF_PERICENTER": 281.7737, "MEAN_ANOMALY": 78.1861, "EPHEMERIS_TYPE": 0, "CLASSIFICATION_TYPE": "U", "NORAD_CAT_ID": 43567, "ELEMENT_SET_NO": 999, "REV_AT_EPOCH": 4586, "BSTAR": 0, "MEAN_MOTION_DOT": -7.4e-07, "MEAN_MOTION_DDOT": 0}, "tle": {"line1": "1 43567U 18060D   25338.97999270 -.00000074  00000+0  00000+0 0  9993", "line2": "2 43567  57.2318 347.0321 0006163 281.7737  78.1861  1.70475333 45861"}}, "geometry": {"type": "Point", "coordinates": [-17.274845030159835, -6.552084603935187]}}, {"type": "Feature", "properties": {"norad_id": 43581, "name": "BEIDOU-3 M5 (C23)", "group": "gnss", "lat": -48.31874208567199, "lon": 134.3368693156436, "alt_km": 21530.734302605044, "timestamp": "2025-12-07T07:31:36.542481+00:00", "meta": {"OBJECT_NAME": "BEIDOU-3 M5 (C23)", "OBJECT_ID": "2018-062A", "EPOCH": "2025-12-05T19:16:28.653888", "MEAN_MOTION": 1.862286, "ECCENTRICITY": 0.00021216, "INCLINATION": 54.0891, "RA_OF_ASC_NODE": 188.8794, "ARG_OF_PERICENTER": 352.6439, "MEAN_ANOMALY": 7.436, "EPHEMERIS_TYPE": 0, "CLASSIFICATION_TYPE": "U", "NORAD_CAT_ID": 43581, "ELEMENT_SET_NO": 999, "REV_AT_EPOCH": 5003, "BSTAR": 0, "MEAN_MOTION_DOT": 8.2e-07, "MEAN_MOTION_DDOT": 0}, "tle": {"line1": "1 43581U 18062A   25339.80310942  .00000082  00000+0  00000+0 0  9995", "line2": "2 43581  54.0891 188.8794 0002121 352.6439   7.4360  1.86228600 50034"}}, "geometry": {"type": "Point", "coordinates": [134.3368693156436, -48.31874208567199]}}, {"type": "Feature", "properties": {"norad_id": 43582, "name": "BEIDOU-3 M6 (C24)", "group": "gnss", "lat": 19.65145831029687, "lon": -156.17279823429536, "alt_km": 21505.8052435724, "timestamp": "2025-12-07T07:31:36.542498+00:00", "meta": {"OBJECT_NAME": "BEIDOU-3 M6 (C24)", "OBJECT_ID": "2018-062B", "EPOCH": "2025-12-04T14:12:56.874816", "MEAN_MOTION": 1.862296, "ECCENTRICITY": 0.00077069, "INCLINATION": 54.0887, "RA_OF_ASC_NODE": 188.9098, "ARG_OF_PERICENTER": 46.0149, "MEAN_ANOMALY": 314.1395, "EPHEMERIS_TYPE": 0, "CLASSIFICATION_TYPE": "U", "NORAD_CAT_ID": 43582, "ELEMENT_SET_NO": 999, "REV_AT_EPOCH": 5001, "BSTAR": 0, "MEAN_MOTION_DOT": 1.02e-06, "MEAN_MOTION_DDOT": 0}, "tle": {"line1": "1 43582U 18062B   25338.59232494  .00000102  00000+0  00000+0 0  9999", "line2": "2 43582  54.0887 188.9098 0007706  46.0149 314.1395  1.86229600 50019"}}, "geometry": {"type": "Point", "coordinates": [-156.17279823429536, 19.65145831029687]}}, {"type": "Feature", "properties": {"norad_id": 43602, "name": "BEIDOU-3 M12 (C26)", "group": "gnss", "lat": 47.95251458117424, "lon": -119.22327219548627, "alt_km": 21499.61213243194, "timestamp": "2025-12-07T07:31:36.542512+00:00", "meta": {"OBJECT_NAME": "BEIDOU-3 M12 (C26)", "OBJECT_ID": "2018-067A", "EPOCH": "2025-12-05T01:36:30.437280", "MEAN_MOTION": 1.86227634, "ECCENTRICITY": 0.0009145, "INCLINATION": 54.1831, "RA_OF_ASC_NODE": 187.6237, "ARG_OF_PERICENTER": 40.6372, "MEAN_ANOMALY": 319.5174, "EPHEMERIS_TYPE": 0, "CLASSIFICATION_TYPE": "U", "NORAD_CAT_ID": 43602, "ELEMENT_SET_NO": 999, "REV_AT_EPOCH": 4950, "BSTAR": 0, "MEAN_MOTION_DOT": 9.5e-07, "MEAN_MOTION_DDOT": 0}, "tle": {"line1": "1 43602U 18067A   25339.06701895  .00000095  00000+0  00000+0 0  9997", "line2": "2 43602  54.1831 187.6237 0009145  40.6372 319.5174  1.86227634 49501"}}, "geometry": {"type": "Point", "coordinates": [-119.22327219548627, 47.95251458117424]}}, {"type": "Feature", "properties": {"norad_id": 43603, "name": "BEIDOU-3 M11 (C25)", "group": "gnss", "lat": -19.214802217097372, "lon": 172.9352038227947, "alt_km": 21523.40836824942, "timestamp": "2025-12-07T07:31:36.542525+00:00", "meta": {"OBJECT_NAME": "BEIDOU-3 M11 (C25)", "OBJECT_ID": "2018-067B", "EPOCH": "2025-12-05T17:43:23.000160", "MEAN_MOTION": 1.86227161, "ECCENTRICITY": 0.00055761, "INCLINATION": 54.1804, "RA_OF_ASC_NODE": 187.565, "ARG_OF_PERICENTER": 36.5607, "MEAN_ANOMALY": 323.5589, "EPHEMERIS_TYPE": 0, "CLASSIFICATION_TYPE": "U", "NORAD_CAT_ID": 43603, "ELEMENT_SET_NO": 999, "REV_AT_EPOCH": 4954, "BSTAR": 0, "MEAN_MOTION_DOT": 8.4e-07, "MEAN_MOTION_DDOT": 0}, "tle": {"line1": "1 43603U 18067B   25339.73846065  .00000084  00000+0  00000+0 0  9999", "line2": "2 43603  54.1804 187.5650 0005576  36.5607 323.5589  1.86227161 49543"}}, "geometry": {"type": "Point", "coordinates": [172.9352038227947, -19.214802217097372]}}, {"type": "Feature", "properties": {"norad_id": 43622, "name": "BEIDOU-3 M13 (C32)", "group": "gnss", "lat": 4.336164527648686, "lon": 71.88868756179808, "alt_km": 21521.52768291396, "timestamp": "2025-12-07T07:31:36.542537+00:00", "meta": {"OBJECT_NAME": "BEIDOU-3 M13 (C32)", "OBJECT_ID": "2018-072A", "EPOCH": "2025-12-03T13:07:53.541408", "MEAN_MOTION": 1.86230692, "ECCENTRICITY": 0.00056735, "INCLINATION": 56.4512, "RA_OF_ASC_NODE": 69.1249, "ARG_OF_PERICENTER": 298.6305, "MEAN_ANOMALY": 61.3164, "EPHEMERIS_TYPE": 0, "CLASSIFICATION_TYPE": "U", "NORAD_CAT_ID": 43622, "ELEMENT_SET_NO": 999, "REV_AT_EPOCH": 4901, "BSTAR": 0, "MEAN_MOTION_DOT": -5e-07, "MEAN_MOTION_DDOT": 0}, "tle": {"line1": "1 43622U 18072A   25337.54714747 -.00000050  00000+0  00000+0 0  9998", "line2": "2 43622  56.4512  69.1249 0005673 298.6305  61.3164  1.86230692 49019"}}, "geometry": {"type": "Point", "coordinates": [71.88868756179808, 4.336164527648686]}}, {"type": "Feature", "properties": {"norad_id": 43623, "name": "BEIDOU-3 M14 (C33)", "group": "gnss", "lat": 56.091977656276065, "lon": 168.7911291945324, "alt_km": 21525.82741174295, "timestamp": "2025-12-07T07:31:36.542551+00:00", "meta": {"OBJECT_NAME": "BEIDOU-3 M14 (C33)", "OBJECT_ID": "2018-072B", "EPOCH": "2025-12-02T08:07:43.843296", "MEAN_MOTION": 1.86230716, "ECCENTRICITY": 0.00030503, "INCLINATION": 56.4518, "RA_OF_ASC_NODE": 69.1588, "ARG_OF_PERICENTER": 335.8375, "MEAN_ANOMALY": 24.1509, "EPHEMERIS_TYPE": 0, "CLASSIFICATION_TYPE": "U", "NORAD_CAT_ID": 43623, "ELEMENT_SET_NO": 999, "REV_AT_EPOCH": 4898, "BSTAR": 0, "MEAN_MOTION_DOT": -4.6e-07, "MEAN_MOTION_DDOT": 0}, "tle": {"line1": "1 43623U 18072B   25336.33870189 -.00000046  00000+0  00000+0 0  9993", "line2": "2 43623  56.4518  69.1588 0003050 335.8375  24.1509  1.86230716 48982"}}, "geometry": {"type": "Point", "coordinates": [168.7911291945324, 56.091977656276065]}}, {"type": "Feature", "properties": {"norad_id": 43647, "name": "BEIDOU-3 M16 (C35)", "group": "gnss", "lat": -8.48578237502772, "lon": -59.47309832097729, "alt_km": 21512.191237143692, "timestamp": "2025-12-07T07:31:36.542563+00:00", "meta": {"OBJECT_NAME": "BEIDOU-3 M16 (C35)", "OBJECT_ID": "2018-078A", "EPOCH": "2025-12-04T15:28:02.326368", "MEAN_MOTION": 1.8623209, "ECCENTRICITY": 0.00070171, "INCLINATION": 54.2696, "RA_OF_ASC_NODE": 306.8042, "ARG_OF_PERICENTER": 18.5633, "MEAN_ANOMALY": 341.4446, "EPHEMERIS_TYPE": 0, "CLASSIFICATION_TYPE": "U", "NORAD_CAT_ID": 43647, "ELEMENT_SET_NO": 999, "REV_AT_EPOCH": 4853, "BSTAR": 0, "MEAN_MOTION_DOT": -6.9e-07, "MEAN_MOTION_DDOT": 0}, "tle": {"line1": "1 43647U 18078A   25338.64447137 -.00000069  00000+0  00000+0 0  9999", "line2": "2 43647  54.2696 306.8042 0007017  18.5633 341.4446  1.86232090 48539"}}, "geometry": {"type": "Point", "coordinates": [-59.47309832097729, -8.48578237502772]}}, {"type": "Feature", "properties": {"norad_id": 43648, "name": "BEIDOU-3 M15 (C34)", "group": "gnss", "lat": -53.6597740284188, "lon": -155.33281983446605, "alt_km": 21538.032362727034, "timestamp": "2025-12-07T07:31:36.542574+00:00", "meta": {"OBJECT_NAME": "BEIDOU-3 M15 (C34)", "OBJECT_ID": "2018-078B", "EPOCH": "2025-12-05T07:27:18.667008", "MEAN_MOTION": 1.86231965, "ECCENTRICITY": 0.00036856, "INCLINATION": 54.2646, "RA_OF_ASC_NODE": 306.7819, "ARG_OF_PERICENTER": 17.7509, "MEAN_ANOMALY": 342.2442, "EPHEMERIS_TYPE": 0, "CLASSIFICATION_TYPE": "U", "NORAD_CAT_ID": 43648, "ELEMENT_SET_NO": 999, "REV_AT_EPOCH": 4856, "BSTAR": 0, "MEAN_MOTION_DOT": -6.9e-07, "MEAN_MOTION_DDOT": 0}, "tle": {"line1": "1 43648U 18078B   25339.31063272 -.00000069  00000+0  00000+0 0  9999", "line2": "2 43648  54.2646 306.7819 0003685  17.7509 342.2442  1.86231965 48564"}}, "geometry": {"type": "Point", "coordinates": [-155.33281983446605, -53.6597740284188]}}]}